[{"OBJECT_NAME":"STARLINK-5150","OBJECT_ID":"2023-090AV","EPOCH":"2025-09-05T05:34:44.700384","MEAN_MOTION":15.02532144,"ECCENTRICITY":0.00011807,"INCLINATION":43.002,"RA_OF_ASC_NODE":189.5329,"ARG_OF_PERICENTER":265.4305,"MEAN_ANOMALY":94.6403,"EPHEMERIS_TYPE":0,"CLASSIFICATION_TYPE":"U","NORAD_CAT_ID":57144,"ELEMENT_SET_NO":999,"REV_AT_EPOCH":12247,"BSTAR":7.3026419e-5,"MEAN_MOTION_DOT":7.83e-6,"MEAN_MOTION_DDOT":0},{"OBJECT_NAME":"STARLINK-5768","OBJECT_ID":"2023-090AW","EPOCH":"2025-09-05T03:30:14.520960","MEAN_MOTION":15.02536378,"ECCENTRICITY":0.00013305,"INCLINATION":43.0022,"RA_OF_ASC_NODE":189.7458,"ARG_OF_PERICENTER":259.5379,"MEAN_ANOMALY":100.5314,"EPHEMERIS_TYPE":0,"CLASSIFICATION_TYPE":"U","NORAD_CAT_ID":57145,"ELEMENT_SET_NO":999,"REV_AT_EPOCH":12246,"BSTAR":8.548969e-6,"MEAN_MOTION_DOT":-8.8e-7,"MEAN_MOTION_DDOT":0},{"OBJECT_NAME":"STARLINK-5791","OBJECT_ID":"2023-090AX","EPOCH":"2025-09-05T05:15:33.774624","MEAN_MOTION":15.02533322,"ECCENTRICITY":0.00012052,"INCLINATION":43.0026,"RA_OF_ASC_NODE":189.4335,"ARG_OF_PERICENTER":264.1407,"MEAN_ANOMALY":95.9298,"EPHEMERIS_TYPE":0,"CLASSIFICATION_TYPE":"U","NORAD_CAT_ID":57146,"ELEMENT_SET_NO":999,"REV_AT_EPOCH":12247,"BSTAR":9.7345391e-5,"MEAN_MOTION_DOT":1.112e-5,"MEAN_MOTION_DDOT":0},{"OBJECT_NAME":"STARLINK-5765","OBJECT_ID":"2023-090AY","EPOCH":"2025-09-04T13:02:17.800512","MEAN_MOTION":15.0252995,"ECCENTRICITY":0.00010987,"INCLINATION":43.0029,"RA_OF_ASC_NODE":192.962,"ARG_OF_PERICENTER":280.6247,"MEAN_ANOMALY":79.4471,"EPHEMERIS_TYPE":0,"CLASSIFICATION_TYPE":"U","NORAD_CAT_ID":57147,"ELEMENT_SET_NO":999,"REV_AT_EPOCH":12256,"BSTAR":2.9346366e-5,"MEAN_MOTION_DOT":1.93e-6,"MEAN_MOTION_DDOT":0},{"OBJECT_NAME":"STARLINK-5788","OBJECT_ID":"2023-090AZ","EPOCH":"2025-09-05T00:02:49.216992","MEAN_MOTION":15.02488214,"ECCENTRICITY":0.00017171,"INCLINATION":43.003,"RA_OF_ASC_NODE":190.383,"ARG_OF_PERICENTER":254.7017,"MEAN_ANOMALY":105.3636,"EPHEMERIS_TYPE":0,"CLASSIFICATION_TYPE":"U","NORAD_CAT_ID":57148,"ELEMENT_SET_NO":999,"REV_AT_EPOCH":12244,"BSTAR":0.0007273983,"MEAN_MOTION_DOT":9.623e-5,"MEAN_MOTION_DDOT":0},{"OBJECT_NAME":"STARLINK-5778","OBJECT_ID":"2023-090BA","EPOCH":"2025-09-04T22:56:34.872288","MEAN_MOTION":15.02534335,"ECCENTRICITY":0.00013049,"INCLINATION":43.0033,"RA_OF_ASC_NODE":164.8575,"ARG_OF_PERICENTER":270.8749,"MEAN_ANOMALY":89.1943,"EPHEMERIS_TYPE":0,"CLASSIFICATION_TYPE":"U","NORAD_CAT_ID":57149,"ELEMENT_SET_NO":999,"REV_AT_EPOCH":12292,"BSTAR":4.2211527e-5,"MEAN_MOTION_DOT":3.67e-6,"MEAN_MOTION_DDOT":0},{"OBJECT_NAME":"STARLINK-5780","OBJECT_ID":"2023-090BB","EPOCH":"2025-09-05T05:10:46.044480","MEAN_MOTION":15.02531918,"ECCENTRICITY":0.00010248,"INCLINATION":43.0018,"RA_OF_ASC_NODE":189.4106,"ARG_OF_PERICENTER":278.198,"MEAN_ANOMALY":81.8746,"EPHEMERIS_TYPE":0,"CLASSIFICATION_TYPE":"U","NORAD_CAT_ID":57150,"ELEMENT_SET_NO":999,"REV_AT_EPOCH":12266,"BSTAR":4.7219205e-5,"MEAN_MOTION_DOT":4.34e-6,"MEAN_MOTION_DDOT":0},{"OBJECT_NAME":"STARLINK-5776","OBJECT_ID":"2023-090BC","EPOCH":"2025-09-05T03:33:26.195040","MEAN_MOTION":15.02543855,"ECCENTRICITY":0.0001272,"INCLINATION":43.0028,"RA_OF_ASC_NODE":189.76,"ARG_OF_PERICENTER":271.6065,"MEAN_ANOMALY":88.4632,"EPHEMERIS_TYPE":0,"CLASSIFICATION_TYPE":"U","NORAD_CAT_ID":57151,"ELEMENT_SET_NO":999,"REV_AT_EPOCH":12265,"BSTAR":-0.00011290439,"MEAN_MOTION_DOT":-1.729e-5,"MEAN_MOTION_DDOT":0},{"OBJECT_NAME":"STARLINK-6164","OBJECT_ID":"2023-090BD","EPOCH":"2025-09-05T03:38:14.696736","MEAN_MOTION":15.02527796,"ECCENTRICITY":0.00011362,"INCLINATION":43.0032,"RA_OF_ASC_NODE":189.7895,"ARG_OF_PERICENTER":271.6916,"MEAN_ANOMALY":88.3796,"EPHEMERIS_TYPE":0,"CLASSIFICATION_TYPE":"U","NORAD_CAT_ID":57152,"ELEMENT_SET_NO":999,"REV_AT_EPOCH":12265,"BSTAR":-4.2678702e-5,"MEAN_MOTION_DOT":-7.8e-6,"MEAN_MOTION_DDOT":0},{"OBJECT_NAME":"STARLINK-5879","OBJECT_ID":"2023-090BE","EPOCH":"2025-09-04T23:24:59.166720","MEAN_MOTION":15.02529141,"ECCENTRICITY":0.0001185,"INCLINATION":43.0056,"RA_OF_ASC_NODE":178.0301,"ARG_OF_PERICENTER":268.2339,"MEAN_ANOMALY":91.8368,"EPHEMERIS_TYPE":0,"CLASSIFICATION_TYPE":"U","NORAD_CAT_ID":57153,"ELEMENT_SET_NO":999,"REV_AT_EPOCH":12227,"BSTAR":-4.6043543e-5,"MEAN_MOTION_DOT":-8.25e-6,"MEAN_MOTION_DDOT":0},{"OBJECT_NAME":"STARLINK-6106","OBJECT_ID":"2023-090BF","EPOCH":"2025-09-05T03:25:26.791680","MEAN_MOTION":15.02534582,"ECCENTRICITY":0.00012581,"INCLINATION":43.0024,"RA_OF_ASC_NODE":189.718,"ARG_OF_PERICENTER":269.4278,"MEAN_ANOMALY":90.642,"EPHEMERIS_TYPE":0,"CLASSIFICATION_TYPE":"U","NORAD_CAT_ID":57154,"ELEMENT_SET_NO":999,"REV_AT_EPOCH":12265,"BSTAR":4.9675962e-5,"MEAN_MOTION_DOT":4.67e-6,"MEAN_MOTION_DDOT":0},{"OBJECT_NAME":"STARLINK-6108","OBJECT_ID":"2023-090BG","EPOCH":"2025-09-05T04:40:23.731968","MEAN_MOTION":15.0252078,"ECCENTRICITY":0.00011775,"INCLINATION":43.0033,"RA_OF_ASC_NODE":189.2501,"ARG_OF_PERICENTER":262.3668,"MEAN_ANOMALY":97.704,"EPHEMERIS_TYPE":0,"CLASSIFICATION_TYPE":"U","NORAD_CAT_ID":57155,"ELEMENT_SET_NO":999,"REV_AT_EPOCH":12266,"BSTAR":0.00025332582,"MEAN_MOTION_DOT":3.219e-5,"MEAN_MOTION_DDOT":0},{"OBJECT_NAME":"STARLINK-6137","OBJECT_ID":"2023-090BH","EPOCH":"2025-09-04T23:58:00.010272","MEAN_MOTION":15.02522106,"ECCENTRICITY":0.00011414,"INCLINATION":43.0051,"RA_OF_ASC_NODE":190.3609,"ARG_OF_PERICENTER":255.0274,"MEAN_ANOMALY":105.0442,"EPHEMERIS_TYPE":0,"CLASSIFICATION_TYPE":"U","NORAD_CAT_ID":57156,"ELEMENT_SET_NO":999,"REV_AT_EPOCH":12263,"BSTAR":-0.00013047618,"MEAN_MOTION_DOT":-1.965e-5,"MEAN_MOTION_DDOT":0},{"OBJECT_NAME":"STARLINK-5525","OBJECT_ID":"2023-094A","EPOCH":"2025-09-04T16:09:55.020672","MEAN_MOTION":15.02523821,"ECCENTRICITY":2.037e-5,"INCLINATION":42.998,"RA_OF_ASC_NODE":321.4942,"ARG_OF_PERICENTER":77.0491,"MEAN_ANOMALY":283.0374,"EPHEMERIS_TYPE":0,"CLASSIFICATION_TYPE":"U","NORAD_CAT_ID":57218,"ELEMENT_SET_NO":999,"REV_AT_EPOCH":11913,"BSTAR":-0.00010765731,"MEAN_MOTION_DOT":-1.657e-5,"MEAN_MOTION_DDOT":0},{"OBJECT_NAME":"STARLINK-5520","OBJECT_ID":"2023-094B","EPOCH":"2025-09-03T12:57:43.166880","MEAN_MOTION":15.02545148,"ECCENTRICITY":0.00010687,"INCLINATION":43.0027,"RA_OF_ASC_NODE":327.6116,"ARG_OF_PERICENTER":269.7069,"MEAN_ANOMALY":90.365,"EPHEMERIS_TYPE":0,"CLASSIFICATION_TYPE":"U","NORAD_CAT_ID":57219,"ELEMENT_SET_NO":999,"REV_AT_EPOCH":11896,"BSTAR":-3.7461432e-5,"MEAN_MOTION_DOT":-7.1e-6,"MEAN_MOTION_DDOT":0},{"OBJECT_NAME":"STARLINK-5880","OBJECT_ID":"2023-094C","EPOCH":"2025-09-04T12:31:16.702176","MEAN_MOTION":15.02516885,"ECCENTRICITY":0.0001221,"INCLINATION":43.0041,"RA_OF_ASC_NODE":322.0727,"ARG_OF_PERICENTER":259.5033,"MEAN_ANOMALY":100.5672,"EPHEMERIS_TYPE":0,"CLASSIFICATION_TYPE":"U","NORAD_CAT_ID":57220,"ELEMENT_SET_NO":999,"REV_AT_EPOCH":11911,"BSTAR":0.00025467777,"MEAN_MOTION_DOT":3.237e-5,"MEAN_MOTION_DDOT":0},{"OBJECT_NAME":"STARLINK-5875","OBJECT_ID":"2023-094D","EPOCH":"2025-09-04T16:01:55.104096","MEAN_MOTION":15.02532187,"ECCENTRICITY":0.00016892,"INCLINATION":43.0053,"RA_OF_ASC_NODE":321.4547,"ARG_OF_PERICENTER":272.9505,"MEAN_ANOMALY":87.1145,"EPHEMERIS_TYPE":0,"CLASSIFICATION_TYPE":"U","NORAD_CAT_ID":57221,"ELEMENT_SET_NO":999,"REV_AT_EPOCH":11913,"BSTAR":0.00010876535,"MEAN_MOTION_DOT":1.266e-5,"MEAN_MOTION_DDOT":0},{"OBJECT_NAME":"STARLINK-5870","OBJECT_ID":"2023-094E","EPOCH":"2025-09-04T15:52:19.167744","MEAN_MOTION":15.02533246,"ECCENTRICITY":0.00010069,"INCLINATION":43.0037,"RA_OF_ASC_NODE":321.403,"ARG_OF_PERICENTER":258.7123,"MEAN_ANOMALY":101.3607,"EPHEMERIS_TYPE":0,"CLASSIFICATION_TYPE":"U","NORAD_CAT_ID":57222,"ELEMENT_SET_NO":999,"REV_AT_EPOCH":11976,"BSTAR":6.7797143e-5,"MEAN_MOTION_DOT":7.12e-6,"MEAN_MOTION_DDOT":0},{"OBJECT_NAME":"STARLINK-5519","OBJECT_ID":"2023-094F","EPOCH":"2025-09-04T12:45:39.947904","MEAN_MOTION":15.02528801,"ECCENTRICITY":0.00010939,"INCLINATION":43.0028,"RA_OF_ASC_NODE":322.1507,"ARG_OF_PERICENTER":266.4173,"MEAN_ANOMALY":93.6544,"EPHEMERIS_TYPE":0,"CLASSIFICATION_TYPE":"U","NORAD_CAT_ID":57223,"ELEMENT_SET_NO":999,"REV_AT_EPOCH":11911,"BSTAR":-0.00013126832,"MEAN_MOTION_DOT":-1.976e-5,"MEAN_MOTION_DDOT":0},{"OBJECT_NAME":"STARLINK-5983","OBJECT_ID":"2023-094G","EPOCH":"2025-09-04T12:36:04.365792","MEAN_MOTION":15.02529451,"ECCENTRICITY":0.00012418,"INCLINATION":43.0035,"RA_OF_ASC_NODE":322.1015,"ARG_OF_PERICENTER":268.5384,"MEAN_ANOMALY":91.5316,"EPHEMERIS_TYPE":0,"CLASSIFICATION_TYPE":"U","NORAD_CAT_ID":57224,"ELEMENT_SET_NO":999,"REV_AT_EPOCH":11911,"BSTAR":0.00015952256,"MEAN_MOTION_DOT":1.952e-5,"MEAN_MOTION_DDOT":0},{"OBJECT_NAME":"STARLINK-6294","OBJECT_ID":"2023-094H","EPOCH":"2025-09-04T16:00:19.109376","MEAN_MOTION":15.02526578,"ECCENTRICITY":0.00010916,"INCLINATION":43.0036,"RA_OF_ASC_NODE":321.4386,"ARG_OF_PERICENTER":264.5858,"MEAN_ANOMALY":95.486,"EPHEMERIS_TYPE":0,"CLASSIFICATION_TYPE":"U","NORAD_CAT_ID":57225,"ELEMENT_SET_NO":999,"REV_AT_EPOCH":11913,"BSTAR":-5.8428481e-5,"MEAN_MOTION_DOT":-9.93e-6,"MEAN_MOTION_DDOT":0},{"OBJECT_NAME":"STARLINK-6350","OBJECT_ID":"2023-094J","EPOCH":"2025-09-05T05:53:05.439840","MEAN_MOTION":15.02519992,"ECCENTRICITY":0.00021291,"INCLINATION":43.0074,"RA_OF_ASC_NODE":318.0404,"ARG_OF_PERICENTER":273.7231,"MEAN_ANOMALY":86.3368,"EPHEMERIS_TYPE":0,"CLASSIFICATION_TYPE":"U","NORAD_CAT_ID":57226,"ELEMENT_SET_NO":999,"REV_AT_EPOCH":11922,"BSTAR":-9.5008399e-5,"MEAN_MOTION_DOT":-1.487e-5,"MEAN_MOTION_DDOT":0},{"OBJECT_NAME":"STARLINK-5996","OBJECT_ID":"2023-094K","EPOCH":"2025-09-04T15:37:56.010144","MEAN_MOTION":15.02532685,"ECCENTRICITY":0.00013227,"INCLINATION":43.0042,"RA_OF_ASC_NODE":321.3278,"ARG_OF_PERICENTER":272.66,"MEAN_ANOMALY":87.409,"EPHEMERIS_TYPE":0,"CLASSIFICATION_TYPE":"U","NORAD_CAT_ID":57227,"ELEMENT_SET_NO":999,"REV_AT_EPOCH":11913,"BSTAR":1.1797223e-5,"MEAN_MOTION_DOT":-4.4e-7,"MEAN_MOTION_DDOT":0}]
